*******************************************************************************
Ephemeris / WWW_USER Mon Mar 10 06:38:04 2025 Pasadena, USA      / Horizons    
*******************************************************************************
Target body name: (2018 VA2)                      {source: JPL#8}
Center body name: Earth (399)                     {source: DE441}
Center-site name: Mauna Kea
*******************************************************************************
Start time      : A.D. 2019-Jan-19 04:15:00.0000 UT      
Stop  time      : A.D. 2019-Jan-19 16:49:00.0000 UT      
Step-size       : 1 minutes
*******************************************************************************
Target pole/equ : undefined
Target radii    : undefined                                                    
Center geodetic : 204.5278, 19.8260847, 4.21024   {E-lon(deg),Lat(deg),Alt(km)}
Center cylindric: 204.5278, 6006.35451, 2151.0229 {E-lon(deg),Dxy(km),Dz(km)}
Center pole/equ : ITRF93                          {East-longitude positive}
Center radii    : 6378.137, 6378.137, 6356.752 km {Equator_a, b, pole_c}       
Target primary  : Sun
Vis. interferer : MOON (R_eq= 1737.400) km        {source: DE441}
Rel. light bend : Sun                             {source: DE441}
Rel. lght bnd GM: 1.3271E+11 km^3/s^2                                          
Small-body perts: Yes                             {source: SB441-N16}
Atmos refraction: NO (AIRLESS)
RA format       : HMS
Time format     : CAL 
Calendar mode   : Mixed Julian/Gregorian
RTS-only print  : NO       
EOP file        : eop.250307.p250603                                           
EOP coverage    : DATA-BASED 1962-JAN-20 TO 2025-MAR-07. PREDICTS-> 2025-JUN-02
Units conversion: 1 au= 149597870.700 km, c= 299792.458 km/s, 1 day= 86400.0 s 
Table cut-offs 1: Elevation (-90.0deg=NO ),Airmass (>38.000=NO), Daylight (YES)
Table cut-offs 2: Solar elongation (  0.0,180.0=NO ),Local Hour Angle( 0.0=NO )
Table cut-offs 3: RA/DEC angular rate (     0.0=NO )                           
*******************************************************************************
Initial IAU76/J2000 heliocentric ecliptic osculating elements (au, days, deg.):
  EPOCH=  2458428.5 ! 2018-Nov-06.00 (TDB)         Residual RMS= .39675        
   EC= .3242664208426159   QR= .935847567628844    TP= 2458464.9625425939      
   OM= 226.0068906557846   W=  220.7446970607937   IN= 3.947636678272312       
  Equivalent ICRF heliocentric cartesian coordinates (au, au/d):
   X= 7.314601530918681E-01  Y= 6.289465658343808E-01  Z= 2.763726037901882E-01
  VX=-1.554701504922309E-02 VY= 1.109318211007817E-02 VZ= 3.366540373951610E-03
Asteroid physical parameters (km, seconds, rotational period in hours):        
   GM= n.a.                RAD= n.a.               ROTPER= n.a.                
   H= 27.08                G= .150                 B-V= n.a.                   
                           ALBEDO= n.a.            STYP= n.a.                  
*******************************************************************************
 Date__(UT)__HR:MN     R.A._________(ICRF)_________DEC
******************************************************
$$SOE
 2019-Jan-19 14:30  m  13 34 47.034364 -27 28 13.38816
 2019-Jan-19 14:31  m  13 34 47.072558 -27 28 13.52877
 2019-Jan-19 14:32  m  13 34 47.110732 -27 28 13.66909
 2019-Jan-19 14:33  m  13 34 47.148886 -27 28 13.80914
 2019-Jan-19 14:34  m  13 34 47.187020 -27 28 13.94889
 2019-Jan-19 14:35  m  13 34 47.225135 -27 28 14.08837
 2019-Jan-19 14:36  m  13 34 47.263231 -27 28 14.22755
 2019-Jan-19 14:37  m  13 34 47.301308 -27 28 14.36646
 2019-Jan-19 14:38  m  13 34 47.339366 -27 28 14.50507
 2019-Jan-19 14:39  m  13 34 47.377406 -27 28 14.64340
 2019-Jan-19 14:40  m  13 34 47.415427 -27 28 14.78144
 2019-Jan-19 14:41  m  13 34 47.453430 -27 28 14.91919
 2019-Jan-19 14:42  m  13 34 47.491415 -27 28 15.05666
 2019-Jan-19 14:43  m  13 34 47.529383 -27 28 15.19384
 2019-Jan-19 14:44  m  13 34 47.567333 -27 28 15.33072
 2019-Jan-19 14:45  m  13 34 47.605265 -27 28 15.46732
 2019-Jan-19 14:46  m  13 34 47.643180 -27 28 15.60363
 2019-Jan-19 14:47  m  13 34 47.681079 -27 28 15.73965
 2019-Jan-19 14:48  m  13 34 47.718960 -27 28 15.87537
 2019-Jan-19 14:49  m  13 34 47.756826 -27 28 16.01081
 2019-Jan-19 14:50  m  13 34 47.794674 -27 28 16.14595
 2019-Jan-19 14:51  m  13 34 47.832507 -27 28 16.28080
 2019-Jan-19 14:52  m  13 34 47.870324 -27 28 16.41536
 2019-Jan-19 14:53  m  13 34 47.908125 -27 28 16.54963
 2019-Jan-19 14:54  m  13 34 47.945910 -27 28 16.68360
 2019-Jan-19 14:55  m  13 34 47.983681 -27 28 16.81728
 2019-Jan-19 14:56  m  13 34 48.021436 -27 28 16.95066
 2019-Jan-19 14:57  m  13 34 48.059176 -27 28 17.08375
 2019-Jan-19 14:58  m  13 34 48.096901 -27 28 17.21655
 2019-Jan-19 14:59  m  13 34 48.134612 -27 28 17.34905
 2019-Jan-19 15:00  m  13 34 48.172309 -27 28 17.48125
 2019-Jan-19 15:01  m  13 34 48.209992 -27 28 17.61316
 2019-Jan-19 15:02  m  13 34 48.247661 -27 28 17.74477
 2019-Jan-19 15:03  m  13 34 48.285316 -27 28 17.87609
 2019-Jan-19 15:04  m  13 34 48.322958 -27 28 18.00711
 2019-Jan-19 15:05  m  13 34 48.360586 -27 28 18.13783
 2019-Jan-19 15:06  m  13 34 48.398201 -27 28 18.26825
 2019-Jan-19 15:07  m  13 34 48.435804 -27 28 18.39838
 2019-Jan-19 15:08  m  13 34 48.473394 -27 28 18.52820
 2019-Jan-19 15:09  m  13 34 48.510972 -27 28 18.65773
 2019-Jan-19 15:10  m  13 34 48.548537 -27 28 18.78696
 2019-Jan-19 15:11  m  13 34 48.586090 -27 28 18.91589
 2019-Jan-19 15:12  m  13 34 48.623632 -27 28 19.04453
 2019-Jan-19 15:13  m  13 34 48.661162 -27 28 19.17286
 2019-Jan-19 15:14  m  13 34 48.698681 -27 28 19.30089
 2019-Jan-19 15:15  m  13 34 48.736188 -27 28 19.42862
 2019-Jan-19 15:16  m  13 34 48.773685 -27 28 19.55605
 2019-Jan-19 15:17  m  13 34 48.811171 -27 28 19.68318
 2019-Jan-19 15:18  m  13 34 48.848646 -27 28 19.81001
 2019-Jan-19 15:19  m  13 34 48.886111 -27 28 19.93653
 2019-Jan-19 15:20  m  13 34 48.923566 -27 28 20.06276
 2019-Jan-19 15:21  m  13 34 48.961011 -27 28 20.18868
 2019-Jan-19 15:22  m  13 34 48.998446 -27 28 20.31431
 2019-Jan-19 15:23  m  13 34 49.035872 -27 28 20.43962
 2019-Jan-19 15:24  m  13 34 49.073289 -27 28 20.56464
 2019-Jan-19 15:25  m  13 34 49.110697 -27 28 20.68935
 2019-Jan-19 15:26  m  13 34 49.148095 -27 28 20.81377
 2019-Jan-19 15:27  m  13 34 49.185485 -27 28 20.93787
 2019-Jan-19 15:28  m  13 34 49.222867 -27 28 21.06168
 2019-Jan-19 15:29  m  13 34 49.260241 -27 28 21.18518
 2019-Jan-19 15:30  m  13 34 49.297606 -27 28 21.30837
 2019-Jan-19 15:31  m  13 34 49.334964 -27 28 21.43127
 2019-Jan-19 15:32  m  13 34 49.372314 -27 28 21.55386
 2019-Jan-19 15:33  m  13 34 49.409657 -27 28 21.67614
 2019-Jan-19 15:34  m  13 34 49.446993 -27 28 21.79812
 2019-Jan-19 15:35  m  13 34 49.484322 -27 28 21.91980
 2019-Jan-19 15:36  m  13 34 49.521644 -27 28 22.04117
 2019-Jan-19 15:37  m  13 34 49.558960 -27 28 22.16223
 2019-Jan-19 15:38  m  13 34 49.596269 -27 28 22.28299
 2019-Jan-19 15:39  m  13 34 49.633573 -27 28 22.40345
 2019-Jan-19 15:40     13 34 49.670870 -27 28 22.52360
 2019-Jan-19 15:41     13 34 49.708162 -27 28 22.64344
 2019-Jan-19 15:42     13 34 49.745448 -27 28 22.76298
 2019-Jan-19 15:43 A   13 34 49.782730 -27 28 22.88221
 2019-Jan-19 15:44 A   13 34 49.820006 -27 28 23.00114
 2019-Jan-19 15:45 A   13 34 49.857277 -27 28 23.11976
 2019-Jan-19 15:46 A   13 34 49.894544 -27 28 23.23807
 2019-Jan-19 15:47 A   13 34 49.931807 -27 28 23.35608
 2019-Jan-19 15:48 A   13 34 49.969065 -27 28 23.47378
 2019-Jan-19 15:49 A   13 34 50.006320 -27 28 23.59118
 2019-Jan-19 15:50 A   13 34 50.043571 -27 28 23.70827
 2019-Jan-19 15:51 A   13 34 50.080818 -27 28 23.82505
 2019-Jan-19 15:52 A   13 34 50.118062 -27 28 23.94153
 2019-Jan-19 15:53 A   13 34 50.155303 -27 28 24.05770
 2019-Jan-19 15:54 A   13 34 50.192541 -27 28 24.17356
 2019-Jan-19 15:55 A   13 34 50.229776 -27 28 24.28912
 2019-Jan-19 15:56 A   13 34 50.267009 -27 28 24.40437
 2019-Jan-19 15:57 A   13 34 50.304240 -27 28 24.51931
 2019-Jan-19 15:58 A   13 34 50.341469 -27 28 24.63395
 2019-Jan-19 15:59 A   13 34 50.378696 -27 28 24.74828
 2019-Jan-19 16:00 A   13 34 50.415922 -27 28 24.86230
 2019-Jan-19 16:01 A   13 34 50.453146 -27 28 24.97601
 2019-Jan-19 16:02 A   13 34 50.490369 -27 28 25.08942
 2019-Jan-19 16:03 At  13 34 50.527591 -27 28 25.20252
 2019-Jan-19 16:04 A   13 34 50.564812 -27 28 25.31532
 2019-Jan-19 16:05 A   13 34 50.602033 -27 28 25.42781
 2019-Jan-19 16:06 A   13 34 50.639254 -27 28 25.53999
 2019-Jan-19 16:07 A   13 34 50.676474 -27 28 25.65186
 2019-Jan-19 16:08 A   13 34 50.713695 -27 28 25.76343
 2019-Jan-19 16:09 A   13 34 50.750916 -27 28 25.87469
 2019-Jan-19 16:10 N   13 34 50.788138 -27 28 25.98564
 2019-Jan-19 16:11 N   13 34 50.825361 -27 28 26.09629
 2019-Jan-19 16:12 N   13 34 50.862584 -27 28 26.20663
 2019-Jan-19 16:13 N   13 34 50.899809 -27 28 26.31667
 2019-Jan-19 16:14 N   13 34 50.937035 -27 28 26.42639
 2019-Jan-19 16:15 N   13 34 50.974263 -27 28 26.53582
 2019-Jan-19 16:16 N   13 34 51.011493 -27 28 26.64493
 2019-Jan-19 16:17 N   13 34 51.048724 -27 28 26.75374
 2019-Jan-19 16:18 N   13 34 51.085958 -27 28 26.86224
 2019-Jan-19 16:19 N   13 34 51.123195 -27 28 26.97044
 2019-Jan-19 16:20 N   13 34 51.160434 -27 28 27.07833
 2019-Jan-19 16:21 N   13 34 51.197677 -27 28 27.18591
 2019-Jan-19 16:22 N   13 34 51.234922 -27 28 27.29319
 2019-Jan-19 16:23 N   13 34 51.272171 -27 28 27.40016
 2019-Jan-19 16:24 N   13 34 51.309423 -27 28 27.50683
 2019-Jan-19 16:25 N   13 34 51.346680 -27 28 27.61319
 2019-Jan-19 16:26 N   13 34 51.383940 -27 28 27.71925
 2019-Jan-19 16:27 N   13 34 51.421204 -27 28 27.82500
 2019-Jan-19 16:28 N   13 34 51.458473 -27 28 27.93045
 2019-Jan-19 16:29 N   13 34 51.495747 -27 28 28.03559
 2019-Jan-19 16:30 N   13 34 51.533025 -27 28 28.14043
 2019-Jan-19 16:31 N   13 34 51.570309 -27 28 28.24496
 2019-Jan-19 16:32 N   13 34 51.607597 -27 28 28.34919
